NORAD_CAT_ID,OBJECT_NAME,OBJECT_TYPE,EPOCH,MEAN_MOTION,ECCENTRICITY,INCLINATION,RA_OF_ASC_NODE,ARG_OF_PERICENTER,MEAN_ANOMALY,BSTAR,MEAN_MOTION_DOT,MEAN_MOTION_DDOT,TLE_LINE0,TLE_LINE1,TLE_LINE2,SEMIMAJOR_AXIS,PERIOD,APOGEE,PERIGEE,DECAYED
53633.0,STARLINK-4593,PAYLOAD,2022-11-16 14:00:01,15.32442138,0.0001459,53.2176,252.8231,59.8785,152.7695,-0.039244,-0.01136929,0.0,0 STARLINK-4593,1 53633U 22104AX  22320.58335648 -.01136929  00000-0 -39244-1 0  9996,2 53633  53.2176 252.8231 0001459  59.8785 152.7695 15.32442138  1302,6846.666,93.968,469.53,467.532,0.0
53633.0,STARLINK-4593,PAYLOAD,2022-11-16 20:00:01,15.31832124,0.0001523,53.2177,251.6598,58.0928,94.1765,-0.040005,-0.01136899,0.0,0 STARLINK-4593,1 53633U 22104AX  22320.83334491 -.01136899  00000-0 -40005-1 0  9992,2 53633  53.2177 251.6598 0001523  58.0928  94.1765 15.31832124 12696,6848.483,94.005,471.391,469.305,0.0
53633.0,STARLINK-4593,PAYLOAD,2022-11-16 22:00:08,15.31628019,0.0001431,53.2176,251.2726,62.2643,190.2247,-0.040246,-0.01136444,0.0,0 STARLINK-4593,1 53633U 22104AX  22320.91675926 -.01136444  00000-0 -40246-1 0  9995,2 53633  53.2176 251.2726 0001431  62.2643 190.2247 15.31628019  1308,6849.092,94.018,471.937,469.976,0.0
53633.0,STARLINK-4593,PAYLOAD,2022-11-17 14:00:01,15.30020699,0.0001256,53.217,248.1773,58.9312,269.0844,-0.043453,-0.01164067,0.0,0 STARLINK-4593,1 53633U 22104AX  22321.58334491 -.01164067  00000-0 -43453-1 0  9993,2 53633  53.2170 248.1773 0001256  58.9312 269.0844 15.30020699  1306,6853.887,94.116,476.61300000000006,474.892,0.0
53633.0,STARLINK-4593,PAYLOAD,2022-11-17 22:00:00,15.29215029,0.0001202,53.2169,246.6322,64.7929,299.7427,-0.044952,-0.01189547,0.0,0 STARLINK-4593,1 53633U 22104AX  22321.91667824 -.01189547  00000-0 -44952-1 0  9994,2 53633  53.2169 246.6322 0001202  64.7929 299.7427 15.29215029  1305,6856.295,94.166,478.984,477.335,0.0
53633.0,STARLINK-4593,PAYLOAD,2022-11-18 14:00:01,15.27575898,0.0001392,53.2171,243.5483,49.2228,25.4353,-0.046642,-0.01174771,0.0,0 STARLINK-4593,1 53633U 22104AX  22322.58334491 -.01174771  00000-0 -46642-1 0  9990,2 53633  53.2171 243.5483 0001392  49.2228  25.4353 15.27575898  1305,6861.198,94.267,484.018,482.108,0.0
53633.0,STARLINK-4593,PAYLOAD,2022-11-18 22:00:00,15.26766209,0.0001463,53.2168,242.0093,57.6856,50.5613,-0.048059,-0.0118041,0.0,0 STARLINK-4593,1 53633U 22104AX  22322.91667824 -.01180410  00000-0 -48059-1 0  9997,2 53633  53.2168 242.0093 0001463  57.6856  50.5613 15.26766209 13017,6863.624,94.317,486.49300000000005,484.485,0.0
53633.0,STARLINK-4593,PAYLOAD,2022-11-19 14:00:01,15.25137886,0.0001605,53.2169,238.9368,50.2523,122.2425,-0.050327,-0.01176848,0.0,0 STARLINK-4593,1 53633U 22104AX  22323.58334491 -.01176848  00000-0 -50327-1 0  9993,2 53633  53.2169 238.9368 0001605  50.2523 122.2425 15.25137886  1304,6868.5080000000025,94.418,491.476,489.271,0.0
53633.0,STARLINK-4593,PAYLOAD,2022-11-19 22:00:00,15.24345535,0.0001394,53.2169,237.4036,71.96600000000002,131.1752,-0.052911,-0.01205561,0.0,0 STARLINK-4593,1 53633U 22104AX  22323.91667824 -.01205561  00000-0 -52911-1 0  9995,2 53633  53.2169 237.4036 0001394  71.9660 131.1752 15.24345535  1300,6870.888000000001,94.467,493.711,491.796,0.0
53633.0,STARLINK-4593,PAYLOAD,2022-11-20 06:00:00,15.23514416,0.0001514,53.2165,235.8736,57.9702,174.8582,-0.0530429999999999,-0.01180927,0.0,0 STARLINK-4593,1 53633U 22104AX  22324.25001157 -.01180927  00000-0 -53043-1 0  9999,2 53633  53.2165 235.8736 0001514  57.9702 174.8582 15.23514416 13213,6873.387,94.518,496.293,494.211,0.0
53633.0,STARLINK-4593,PAYLOAD,2022-11-20 14:00:01,15.22696057,0.0001468,53.2169,234.3423,53.2478,208.2863,-0.054083,-0.01175484,0.0,0 STARLINK-4593,1 53633U 22104AX  22324.58334491 -.01175484  00000-0 -54083-1 0  9992,2 53633  53.2169 234.3423 0001468  53.2478 208.2863 15.22696057  1303,6875.849,94.569,498.724,496.705,0.0
53633.0,STARLINK-4593,PAYLOAD,2022-11-20 22:00:00,15.21861966,0.0001509,53.2176,232.8157,52.0681,237.1998,-0.05404,-0.0114808,0.0,0 STARLINK-4593,1 53633U 22104AX  22324.91667824 -.01148080  00000-0 -54040-1 0  9993,2 53633  53.2176 232.8157 0001509  52.0681 237.1998 15.21861966  1309,6878.361999999999,94.621,501.264,499.189,0.0
53633.0,STARLINK-4593,PAYLOAD,2022-11-21 14:00:01,15.20231861,0.0001305,53.2173,229.765,55.3753,286.4088,-0.056492,-0.0114415,0.0,0 STARLINK-4593,1 53633U 22104AX  22325.58334491 -.01144150  00000-0 -56492-1 0  9995,2 53633  53.2173 229.7650 0001305  55.3753 286.4088 15.20231861 13426,6883.278,94.722,506.041,504.244,0.0
53633.0,STARLINK-4593,PAYLOAD,2022-11-22 00:00:00,15.19221212,0.0001393,53.2171,227.8642,66.6982,35.9177,-0.058746,-0.01154313,0.0,0 STARLINK-4593,1 53633U 22104AX  22326.00001157 -.01154313  00000-0 -58746-1 0  9999,2 53633  53.2171 227.8642 0001393  66.6982  35.9177 15.19221212  1307,6886.33,94.785,509.154,507.236,0.0
53633.0,STARLINK-4593,PAYLOAD,2022-11-22 06:00:02,15.18607203,0.0001214,53.2173,226.7247,66.2249,324.2229,-0.059429,-0.01147565,0.0,0 STARLINK-4593,1 53633U 22104AX  22326.25002315 -.01147565  00000-0 -59429-1 0  9993,2 53633  53.2173 226.7247 0001214  66.2249 324.2229 15.18607203 13528,6888.186,94.824,510.887,509.215,0.0
53633.0,STARLINK-4593,PAYLOAD,2022-11-22 14:00:01,15.1781351,0.0001469,53.2167,225.2048,47.8157,5.4579,-0.062433,-0.01175788,0.0,0 STARLINK-4593,1 53633U 22104AX  22326.58335648 -.01175788  00000-0 -62433-1 0  9994,2 53633  53.2167 225.2048 0001469  47.8157   5.4579 15.17813510  1307,6890.587,94.873,513.464,511.44,0.0
53633.0,STARLINK-4593,PAYLOAD,2022-11-22 22:00:00,15.1701003,0.0001328,53.2167,223.6894,66.7598,8.3019,-0.064729,-0.01189828,0.0,0 STARLINK-4593,1 53633U 22104AX  22326.91667824 -.01189828  00000-0 -64729-1 0  9995,2 53633  53.2167 223.6894 0001328  66.7598   8.3019 15.17010030  1308,6893.02,94.924,515.8,513.97,0.0
53633.0,STARLINK-4593,PAYLOAD,2022-11-23 08:00:01,15.15966415,0.0001498,53.2166,221.797,60.3001,130.7209,-0.064519,-0.0115398,0.0,0 STARLINK-4593,1 53633U 22104AX  22327.33334491 -.01153980  00000-0 -64519-1 0  9990,2 53633  53.2166 221.7970 0001498  60.3001 130.7209 15.15966415 13688,6896.183000000001,94.989,519.081,517.015,0.0
53633.0,STARLINK-4593,PAYLOAD,2022-11-23 14:00:01,15.153654,0.0001587,53.2166,220.6619,51.1327,64.7184,-0.066441,-0.01167022,0.0,0 STARLINK-4593,1 53633U 22104AX  22327.58334491 -.01167022  00000-0 -66441-1 0  9995,2 53633  53.2166 220.6619 0001587  51.1327  64.7184 15.15365400  1305,6898.005999999999,95.027,520.966,518.7769999999998,0.0
53633.0,STARLINK-4593,PAYLOAD,2022-11-23 22:00:00,15.14560144,0.0001445,53.2166,219.1522,68.0615,66.7079,-0.068686,-0.01178116,0.0,0 STARLINK-4593,1 53633U 22104AX  22327.91667824 -.01178116  00000-0 -68686-1 0  9990,2 53633  53.2166 219.1522 0001445  68.0615  66.7079 15.14560144  1307,6900.451,95.077,523.313,521.319,0.0
53633.0,STARLINK-4593,PAYLOAD,2022-11-24 08:00:01,15.13523369,0.0001428,53.2167,217.2667,61.7529,185.3055,-0.069017,-0.01151735,0.0,0 STARLINK-4593,1 53633U 22104AX  22328.33334491 -.01151735  00000-0 -69017-1 0  9995,2 53633  53.2167 217.2667 0001428  61.7529 185.3055 15.13523369 13832,6903.602,95.142,526.453,524.481,0.0
53633.0,STARLINK-4593,PAYLOAD,2022-11-24 14:00:01,15.12932831,0.0001667,53.2164,216.1359,52.7525,116.9297,-0.071891,-0.01177688,0.0,0 STARLINK-4593,1 53633U 22104AX  22328.58334491 -.01177688  00000-0 -71891-1 0  9990,2 53633  53.2164 216.1359 0001667  52.7525 116.9297 15.12932831  1300,6905.398,95.179,528.415,526.112,0.0
53633.0,STARLINK-4593,PAYLOAD,2022-11-24 22:00:00,15.12105329,0.0001501,53.2165,214.6319,70.1668,115.5119,-0.072333,-0.01159225,0.0,0 STARLINK-4593,1 53633U 22104AX  22328.91667824 -.01159225  00000-0 -72333-1 0  9995,2 53633  53.2165 214.6319 0001501  70.1668 115.5119 15.12105329  1301,6907.918000000002,95.231,530.819,528.746,0.0
53633.0,STARLINK-4593,PAYLOAD,2022-11-25 08:00:01,15.11082806,0.0001385,53.2168,212.7535,59.7474,234.5465,-0.073991,-0.01152889,0.0,0 STARLINK-4593,1 53633U 22104AX  22329.33334491 -.01152889  00000-0 -73991-1 0  9993,2 53633  53.2168 212.7535 0001385  59.7474 234.5465 15.11082806 13987,6911.034000000002,95.296,533.856,531.941,0.0
53633.0,STARLINK-4593,PAYLOAD,2022-11-25 14:00:01,15.10474263,0.0001611,53.2162,211.6268,56.2588,158.4679,-0.075382,-0.01154723,0.0,0 STARLINK-4593,1 53633U 22104AX  22329.58334491 -.01154723  00000-0 -75382-1 0  9995,2 53633  53.2162 211.6268 0001611  56.2588 158.4679 15.10474263  1307,6912.89,95.334,535.868,533.641,0.0
53633.0,STARLINK-4593,PAYLOAD,2022-11-25 22:00:00,15.09568718,0.0001347,53.2163,210.1288,69.9748,157.809,-0.053024,-0.00804282,0.0,0 STARLINK-4593,1 53633U 22104AX  22329.91667824 -.00804282  00000-0 -53024-1 0  9991,2 53633  53.2163 210.1288 0001347  69.9748 157.8090 15.09568718 14074,6915.654,95.391,538.45,536.587,0.0
53633.0,STARLINK-4593,PAYLOAD,2022-11-26 00:00:00,15.09329825,0.0001330999999999,53.2168,209.7549,72.1563,248.7516,-0.039386,-0.0059267,0.0,0 STARLINK-4593,1 53633U 22104AX  22330.00001157 -.00592670  00000-0 -39386-1 0  9994,2 53633  53.2168 209.7549 0001331  72.1563 248.7516 15.09329825  1306,6916.384,95.407,539.169,537.328,0.0
53633.0,STARLINK-4593,PAYLOAD,2022-11-26 06:00:00,15.08810682,0.0001789,53.2142,208.6314,56.1896,183.6091,0.016537,0.00273044,0.0,0 STARLINK-4593,1 53633U 22104AX  22330.25001157  .00273044  00000-0  16537-1 0  9993,2 53633  53.2142 208.6314 0001789  56.1896 183.6091 15.08810682 14128,6917.97,95.439,541.073,538.597,0.0
53633.0,STARLINK-4593,PAYLOAD,2022-11-26 14:00:01,15.08835994,0.000164,53.2133,207.1311,62.788,188.6161,0.0028249,0.00044953,0.0,0 STARLINK-4593,1 53633U 22104AX  22330.58334491  .00044953  00000-0  28249-2 0  9998,2 53633  53.2133 207.1311 0001640  62.7880 188.6161 15.08835994 14172,6917.893,95.438,540.8919999999998,538.623,0.0
